[{"OBJECT_NAME":"CUBESX-HSE 3 (RS42S)","OBJECT_ID":"2023-091N","EPOCH":"2026-03-09T22:57:25.321248","MEAN_MOTION":15.286147,"ECCENTRICITY":0.00127191,"INCLINATION":97.5203,"RA_OF_ASC_NODE":133.4295,"ARG_OF_PERICENTER":86.5376,"MEAN_ANOMALY":273.7318,"EPHEMERIS_TYPE":0,"CLASSIFICATION_TYPE":"U","NORAD_CAT_ID":57178,"ELEMENT_SET_NO":999,"REV_AT_EPOCH":14925,"BSTAR":0.00059055694,"MEAN_MOTION_DOT":0.00016417,"MEAN_MOTION_DDOT":0},{"OBJECT_NAME":"STARLINK-35907","OBJECT_ID":"2025-263P","EPOCH":"2026-03-09T03:31:12.129024","MEAN_MOTION":15.27597703,"ECCENTRICITY":4.097e-5,"INCLINATION":42.9992,"RA_OF_ASC_NODE":353.9595,"ARG_OF_PERICENTER":309.0303,"MEAN_ANOMALY":51.0512,"EPHEMERIS_TYPE":0,"CLASSIFICATION_TYPE":"U","NORAD_CAT_ID":66498,"ELEMENT_SET_NO":999,"REV_AT_EPOCH":1881,"BSTAR":0.0014046499,"MEAN_MOTION_DOT":0.00038614,"MEAN_MOTION_DDOT":0}]
